COSMOS 2419 (714)       
1 28915U 05050A   16299.58068241 -.00000005  00000-0  00000-0 0  9992
2 28915  65.3843  73.7629 0014431 358.6959  95.4255  2.13105030 84331
COSMOS 2425 (716)       
1 29670U 06062A   16300.41213477 -.00000004  00000-0  10000-3 0  9996
2 29670  65.5735 312.7415 0020852 337.8184  89.9267  2.13105012 76550
COSMOS 2426 (717)       
1 29671U 06062B   16299.67486729 -.00000002  00000-0  10000-3 0  9992
2 29671  65.5909 312.8508 0017997 174.2611 267.8391  2.13103060 76547
COSMOS 2424 (715)       
1 29672U 06062C   16299.98856593 -.00000002  00000-0  10000-3 0  9997
2 29672  65.5767 312.7660 0017414 173.5424 325.2374  2.13102289 76548
COSMOS 2433 (720)       
1 32275U 07052A   16299.82697417 -.00000008  00000-0  10000-3 0  9997
2 32275  65.3992  73.5292 0001743 205.0019 325.9436  2.13104840 70052
COSMOS 2432 (719)       
1 32276U 07052B   16299.74989140 -.00000007  00000-0  10000-3 0  9995
2 32276  65.4114  73.5996 0009732 343.8783  81.4471  2.13104147 70059
COSMOS 2434 (721)       
1 32393U 07065A   16300.28613221 -.00000004  00000-0  00000+0 0  9997
2 32393  65.1922 312.0059 0003002 158.3639 255.9242  2.13102952 68779
COSMOS 2436 (723)       
1 32395U 07065C   16299.70160873 -.00000002  00000-0  10000-3 0  9996
2 32395  65.2057 312.0711 0016115 343.9779  73.9046  2.13102912 68699
COSMOS 2443 (725)       
1 33379U 08046B   16299.79370750 -.00000009  00000-0  10000-3 0  9992
2 33379  65.3288  72.9338 0017282 180.4430 228.3700  2.13100994 62921
COSMOS 2456 (730)       
1 36111U 09070A   16299.70294969 -.00000018  00000-0  00000+0 0  9990
2 36111  64.1790 191.5964 0004347 317.2653 179.7695  2.13103030 53422
COSMOS 2457 (733)       
1 36112U 09070B   16299.83372463 -.00000016  00000-0  00000+0 0  9999
2 36112  64.1605 191.5173 0006589 162.6397 204.3692  2.13101613 53435
COSMOS 2458 (734)       
1 36113U 09070C   16299.59701179 -.00000019  00000-0  10000-3 0  9991
2 36113  64.1664 191.5318 0001406  14.7796 218.2776  2.13101919 53420
COSMOS 2459 (731)       
1 36400U 10007A   16299.61824410 -.00000008  00000-0  10000-3 0  9997
2 36400  65.3091  72.6702 0026377 356.4995 238.5166  2.13102220 51773
COSMOS 2461 (735)       
1 36401U 10007B   16300.41825310 -.00000016  00000-0  10000-3 0  9998
2 36401  65.3011  72.6233 0007855  83.5319 315.8253  2.13102247 51790
COSMOS 2460 (732)       
1 36402U 10007C   16300.29347096 -.00000014  00000-0  10000-3 0  9993
2 36402  65.2914  72.6028 0002187 121.9634 223.3015  2.13101892 51787
COSMOS 2465 (737)       
1 37138U 10041B   16300.09195638 -.00000005  00000-0  00000+0 0  9994
2 37138  64.7916 312.1192 0036355 175.8924 132.6433  2.13103456 47855
COSMOS 2464 (736)       
1 37139U 10041C   16300.06172910 -.00000005  00000-0  00000+0 0  9990
2 37139  64.7981 312.1171 0021066   6.1237 103.7123  2.13102685 47860
COSMOS 2471 (701K)      
1 37372U 11009A   16299.74842635 -.00000010  00000-0  00000+0 0  9990
2 37372  65.2897  72.5709 0007427 222.5907 197.5598  2.13102813 44056
COSMOS 2474 (742)       
1 37829U 11055A   16299.62764303 -.00000019  00000-0  00000+0 0  9999
2 37829  64.5023 192.0661 0008083 250.6545  49.4355  2.13102025 39415
COSMOS 2476 (744)       
1 37867U 11064A   16299.55405243 -.00000020  00000-0  00000-0 0  9991
2 37867  64.4814 192.1462 0017088 245.0282  44.4781  2.13102028 38763
COSMOS 2477 (745)       
1 37868U 11064B   16300.08693500 -.00000014  00000-0  00000+0 0  9990
2 37868  64.4907 192.1715 0015068 246.8023 270.7700  2.13101981 38735
COSMOS 2475 (743)       
1 37869U 11064C   16299.58628624 -.00000020  00000-0  00000-0 0  9996
2 37869  64.4986 192.1760 0020261 274.0692 175.6717  2.13102289 38732
COSMOS 2485 (747)       
1 39155U 13019A   16299.73440255 -.00000018  00000-0  00000-0 0  9994
2 39155  64.6530 192.1193 0017353 239.6444 233.3245  2.13102088 27248
COSMOS 2492 (754)       
1 39620U 14012A   16300.06450685 -.00000013  00000-0  10000-3 0  9991
2 39620  65.1808  72.5806 0013155 336.5459  63.2505  2.13103455 20207
COSMOS 2500 (755)       
1 40001U 14032A   16299.84841731 -.00000011  00000-0  00000-0 0  9991
2 40001  65.1207  72.6020 0006690 186.7739 270.7720  2.13102901 18415
COSMOS 2501 (702K)      
1 40315U 14075A   16299.67143181 -.00000006  00000-0  00000+0 0  9994
2 40315  64.5633 313.5482 0019663 234.9223 247.5346  2.13101672 14816
COSMOS 2514 (751)       
1 41330U 16008A   16300.02444005 -.00000012  00000-0  00000+0 0  9998
2 41330  64.9212  72.7995 0009390 201.8159 210.1423  2.13103477  5582
COSMOS 2516 (753)       
1 41554U 16032A   16300.18503819 -.00000006  00000-0  00000+0 0  9992
2 41554  64.7438 313.2364 0014220 227.7067 201.4287  2.13101632  3191
